#dP2023  2  9  0  0  0.00000000     288   u+U IGS20 FIT  WHU
## 2248 345600.00000000   300.00000000 59984     0.000000000
+  123   G01G02G03G04G05G06G07G08G09G10G11G12G13G14G15G16G17
+        G18G19G20G21G22G23G24G25G26G27G28G29G30G31G32R01R02
+        R03R04R05R07R08R09R11R12R13R14R15R16R17R18R19R20R21
+        R22R24E01E02E03E04E05E07E08E09E10E11E12E13E14E18E19
+        E21E24E25E26E27E30E31E33E34E36C01C02C03C04C05C06C07
+        C08C09C10C11C12C13C14C16C19C20C21C22C23C24C25C26C27
+        C28C29C30C32C33C34C35C36C37C38C39C40C41C43C44C45C46
+        J02J03J04J07  0  0  0  0  0  0  0  0  0  0  0  0  0
+          0  0  0  0  0  0  0  0  0  0  0  0  0  0  0  0  0
+          0  0  0  0  0  0  0  0  0  0  0  0  0  0  0  0  0
++         4  3  4  4  3  3  4  4  4  4  4  3  4  3  3  3  3
++         3  4  4  3  3  4  3  3  3  4  4  4  4  3  3  5  3
++         3  3  3  3  4  3  3  4  4  2  3  4  4  4  5  5  3
++         6  3  5  4  5  4  4  4  4  4  4  4  4  4  5  4  4
++         4  4  4  4  4  4  4  4  3  4  7  6  6  7  6  5  5
++         5  6  6  5  6  5  6  6  5  5  5  5  4  4  7  7  5
++         6  5  5  5  6  5  5  4  4  6  7  6  5  5  5  5  4
++         6  7  7  8  0  0  0  0  0  0  0  0  0  0  0  0  0
++         0  0  0  0  0  0  0  0  0  0  0  0  0  0  0  0  0
++         0  0  0  0  0  0  0  0  0  0  0  0  0  0  0  0  0
%c M  cc GPS ccc cccc cccc cccc cccc ccccc ccccc ccccc ccccc
%c cc cc ccc ccc cccc cccc cccc cccc ccccc ccccc ccccc ccccc
%f  1.2500000  1.025000000  0.00000000000  0.000000000000000
%f  0.0000000  0.000000000  0.00000000000  0.000000000000000
%i    0    0    0    0      0      0      0      0         0
%i    0    0    0    0      0      0      0      0         0
/* GNSS RESEARCH CENTER, WUHAN UNIVERSITY (WHU), P. R. CHINA
/* POSITION AND NAVIGATION DATA ANALYST (PANDA) SOFTWARE    
/* JING GUO (EMAIL:JINGGUO@WHU.EDU.CN)                      
/* PCV:IGS20_2247 OL/AL:FES2014b NONE     YN ORB:CoN CLK:CoN
*  2023  2  9 17 25  0.00000000
PG01   2123.100397 -15916.488027 -21398.563269    214.427684                    
PG02   2003.623924  15876.743748  21860.961787   -621.946813                    
PG03  -7701.064541 -19789.106179 -16147.624970   -365.019573                    
PG04   -309.446369 -25637.784753   6717.048287    -31.066377                    
PG05  -7566.899302  13067.474149  21676.003760   -115.264064                    
PG06 -25078.525497   4694.347000  -7482.027883    570.398173                    
PG07 -13324.060769 -10703.083951  20872.477768    244.061977                    
PG08   6564.355824 -24939.183774   5361.463387   -107.700805                    
PG09  -8843.236066 -19491.551923  15621.843683   -221.284561                    
PG10  22970.704257   9931.288139  -9178.721112    -23.992382                    
PG11 -22839.927378  12222.341408   5798.790425    -99.821704                    
PG12   4603.447384  20040.152772 -17147.490401   -338.329910                    
PG13 -13138.376371  20395.578881  10402.952017    473.406143                    
PG14 -22583.188148 -12201.925100  -7071.710981    -31.004677                    
PG15  -3314.719345  25739.369284   4466.298725     12.001985                    
PG16  11356.353803  -9846.827040  21617.148003   -520.785595                    
PG17 -13495.399354  -6567.881088 -21471.901769    698.955320                    
PG18  16168.956914   8013.505015  19541.076531   -133.749078                    
PG19 -15830.575841   4883.202619 -20925.616479    275.481581                    
PG20 -17370.875194   6220.284213  19062.478117    451.753913                    
PG21  10340.619526 -17688.487592 -15842.636086    153.904673                    
PG22  15574.668972  -9177.285799 -18964.551412    423.649116                    
PG23  20714.180060  16656.323734   1778.090555      5.470907                    
PG24  -5383.468904  18277.236441 -18686.458683    -66.685727                    
PG25  14156.017049  20175.230294 -10569.467433    418.691277                    
PG26  21052.729644   -248.452058  16276.465926    241.346049                    
PG27  12528.954896 -17857.622519  14619.713485    106.365762                    
PG28  24555.245961  -3861.592286  -9383.356209      5.280221                    
PG29   4770.039143  22087.637291  13846.355802   -585.200941                    
PG30 -22876.199213  -1811.452103  13685.539969   -530.835349                    
PG31  25649.885445  -5447.786079  -5719.997608   -208.764458                    
PG32  14887.754504   3019.202630 -21627.819268   -391.025796                    
PR01  -7686.098834 -24327.587548   -252.024727     22.718052                    
PR02 -12402.129106 -14333.829607  17079.771960    -23.326509                    
PR03 -10220.652671   3902.529295  23091.229463     72.161785                    
PR04  -2341.809406  19474.231940  16346.802588    175.112725                    
PR05   6659.407712  24630.006286    667.539659    107.448210                    
PR07   9953.053801  -4625.625131 -22982.493607     49.567001                    
PR08   2177.335332 -19617.383364 -16078.835512    -69.418196                    
PR09  23570.500195   7890.111634  -5546.102323    103.160676                    
PR11   9974.041039  -8412.808111  21920.506646     -2.746656                    
PR12 -10389.353575 -12222.998650  19842.602956     24.869464                    
PR13 -22845.586009  -8692.291226   7260.519212    -31.869501                    
PR14 -22730.260708    535.411819 -11572.716519     24.304692                    
PR15  -8954.936356   8841.014368 -22175.870048     91.164550                    
PR16  10165.535899  12008.508476 -20066.916642     11.037801                    
PR17 -19142.131341  12453.854547 -11318.825904    603.366533                    
PR18 -15733.449447  19416.431563   5277.165884     65.946456                    
PR19  -5688.423108  16789.083120  18347.164068   -221.329073                    
PR20  11437.260784   2923.709313  22616.820342    -87.424222                    
PR21  19322.985469 -13473.924207   9813.421955   -372.072323                    
PR22  15923.485284 -18982.319889  -5996.829939     70.249122                    
PR24 -12309.616602  -2285.907140 -22202.207782    145.572038                    
PE01  26114.589671   9771.855964   9950.383600   -600.388616                    
PE02 -26075.366651  -9406.749469 -10355.603223     19.814156                    
PE03 -16847.402316  -2601.307028  24196.371322   -648.363492                    
PE04  14153.904779 -18645.045120 -18108.307598    -54.665957                    
PE05  -9685.600439 -22815.881670  16181.596118    -96.947373                    
PE07  -3108.133578  29406.335927   1279.005474    -21.658948                    
PE08 -14065.848228  18544.421998  18283.378509    -33.365932                    
PE09   3160.823327 -29399.951193  -1462.892303   -830.219715                    
PE10  18563.556663 -18722.959534 -13454.362266   -511.192814                    
PE11   8417.095756 -19150.265219 -20937.956712    817.398889                    
PE12  24869.675935 -15356.012297  -4596.239155   -416.008188                    
PE13  -9360.196142  19220.465085  20486.487014     -0.142513                    
PE14  16755.433470  -8839.418867  17640.208514    137.511783                    
PE18 -19534.075383  -2844.354228 -23578.120272   -410.167729                    
PE19  16283.193871   5742.643928 -24037.246730  -3275.681533                    
PE21  20463.017752  20118.703144  -7288.613212   -511.189701                    
PE24  -1686.208719 -19638.733576  22053.704408  -1105.015532                    
PE25 -20243.256888 -20211.130612   7581.587465   -599.020125                    
PE26  12461.755273  11553.803480  24244.811559     13.537261                    
PE27   2695.466146  19924.979959 -21732.845099   -508.274957                    
PE30 -17065.815242   7459.257731 -23016.183174  -1229.110749                    
PE31  16506.594454  -7986.777838  23238.988481   -515.581029                    
PE33  25782.622131  -2281.692484  14357.605085   -452.376410                    
PE34 -25848.684937   2464.870312 -14208.759933    -29.228790                    
PE36 -11606.881397 -11878.589391 -24495.789466     -9.950127                    
PC01 -34305.882039  24460.844890   1041.334032    912.370867                    
PC02   4302.555824  41951.900977    754.282511   -503.287159                    
PC03 -14778.963348  39465.468166   1397.261100    197.216115                    
PC04 -39624.327620  14364.056769    412.733126     81.082823                    
PC05  21799.207233  36073.870565    719.814224    257.229525                    
PC06 -18718.484067  35048.675128 -14484.101663   -190.870327                    
PC07  -3378.971325  36282.098285 -21022.354847    137.936591                    
PC08  -7117.775321  19632.543534  36625.855170    526.681223                    
PC09 -12762.537425  33897.794400 -21633.132315    607.990049                    
PC10   2485.004011  38515.457450 -16077.159648     14.775954                    
PC11 -13767.174244  23983.801134   3750.671373   -129.974232                    
PC12 -20160.517801  13832.272048 -13410.157386    443.474541                    
PC13   -955.741167  22274.224916  35963.508702    203.789294                    
PC14  -2826.585604  21314.085341  17780.471825    461.288643                    
PC16 -20058.791696  34841.231877 -12963.043932    166.240941                    
PC19  -4971.349973 -25411.729895 -10400.642762   -894.761158                    
PC20   8727.850990 -15345.791044 -21602.641512    731.041359                    
PC21 -18224.348201  -4857.269105  20592.869159   -911.750482                    
PC22 -16426.956619 -21350.376818   7333.161242   -641.510035                    
PC23  18942.473264  12702.841304 -16090.998180   -876.285240                    
PC24 -20975.187737   9985.969283 -15461.261908   -431.842368                    
PC25    223.344809  16310.983734 -22655.334733     69.245268                    
PC26 -27874.017876   -379.049944   -740.482702    -76.461394                    
PC27  19606.686588  -5503.831834  19054.072332     94.257506                    
PC28  10683.057612  12312.237601  22655.525384     68.542992                    
PC29   4808.836704 -24472.305753 -12517.091042     78.814621                    
PC30  17401.507135 -21121.400416   5384.274820      1.136536                    
PC32  18267.233530   4784.696724 -20525.507745   -626.435969                    
PC33   4994.874614  25352.701202  10528.066285   -874.179088                    
PC34 -16933.994327  21798.810341  -4207.303249    102.425089                    
PC35 -10336.626165 -13059.225636 -22394.014193    683.283278                    
PC36   1000.317972 -16271.008127  22663.488568   -636.422105                    
PC37  27842.903063   1991.084656   -642.296589   -825.133095                    
PC38 -16788.844470  19318.109686  33514.115340     57.627759                    
PC39 -22967.711100  35001.639597  -5884.746106     -1.797579                    
PC40  -7027.220443  33128.345992 -24975.832230    -14.733860                    
PC41  16236.381576  21675.898283  -6670.595138   -592.526086                    
PC43  -5496.938128  24698.247993  11792.121311      6.294813                    
PC44 -19478.121424   5980.838753 -19094.731860     10.148908                    
PC45 -19269.012173 -12448.522869  15862.747755    -58.397714                    
PC46  19623.919877 -10772.041308  16679.007472    -32.336743                    
PJ02 -25211.287506  16112.873052 -25135.824824     -0.829030                    
PJ03 -28126.917036  31414.406684   4099.038317      0.178151                    
PJ04 -24658.849504  28329.558167  25180.356219     94.317172                    
PJ07 -25370.623071  33689.441480    -10.461037     -0.019532                    
EOF
